NORAD_CAT_ID,OBJECT_NAME,OBJECT_TYPE,EPOCH,MEAN_MOTION,ECCENTRICITY,INCLINATION,RA_OF_ASC_NODE,ARG_OF_PERICENTER,MEAN_ANOMALY,BSTAR,MEAN_MOTION_DOT,MEAN_MOTION_DDOT,TLE_LINE0,TLE_LINE1,TLE_LINE2,SEMIMAJOR_AXIS,PERIOD,APOGEE,PERIGEE,DECAYED
54763.0,STARLINK-5191,PAYLOAD,2024-02-20 14:51:32,15.08839674,0.0001445,53.2166,162.4933,76.1956,283.9197,2.9237e-05,1.77e-06,0.0,0 STARLINK-5191,1 54763U 22175F   24051.61912094  .00000177  00000-0  29237-4 0  9998,2 54763  53.2166 162.4933 0001445  76.1956 283.9197 15.08839674 66985,6917.881,95.438,540.746,538.747,0.0
54763.0,STARLINK-5191,PAYLOAD,2024-02-21 14:42:18,15.08848442,0.0001444,53.2165,158.0325,84.2447,275.871,0.00014248,1.981e-05,0.0,0 STARLINK-5191,1 54763U 22175F   24052.61271243  .00001981  00000-0  14248-3 0  9992,2 54763  53.2165 158.0325 0001444  84.2447 275.8710 15.08848442 67136,6917.855,95.437,540.719,538.721,0.0
54763.0,STARLINK-5191,PAYLOAD,2024-02-22 11:22:19,15.08841232,0.0001562,53.218,154.168,78.0684,282.0483,8.1513e-06,-1.58e-06,0.0,0 STARLINK-5191,1 54763U 22175F   24053.47384220 -.00000158  00000-0  81513-5 0  9994,2 54763  53.2180 154.1680 0001562  78.0684 282.0483 15.08841232 65101,6917.877,95.437,540.822,538.661,0.0
54763.0,STARLINK-5191,PAYLOAD,2024-02-22 12:57:42,15.08841984,0.0001438,53.2161,153.8695,91.3015,268.8142,2.0822e-05,4.3e-07,0.0,0 STARLINK-5191,1 54763U 22175F   24053.54008013  .00000043  00000-0  20822-4 0  9992,2 54763  53.2161 153.8695 0001438  91.3015 268.8142 15.08841984 67278,6917.874,95.437,540.734,538.745,0.0
54763.0,STARLINK-5191,PAYLOAD,2024-02-23 12:48:29,15.0885262,0.0001381,53.2162,149.4097,80.6247,279.4902,-1.1187e-05,-4.66e-06,0.0,0 STARLINK-5191,1 54763U 22175F   24054.53367185 -.00000466  00000-0 -11187-4 0  9995,2 54763  53.2162 149.4097 0001381  80.6247 279.4902 15.08852620 65269,6917.842,95.437,540.662,538.751,0.0
54763.0,STARLINK-5191,PAYLOAD,2024-02-23 15:59:14,15.08859123,0.0001421,53.2165,148.8129,84.9625,275.153,4.452e-05,4.21e-06,0.0,0 STARLINK-5191,1 54763U 22175F   24054.66614523  .00000421  00000-0  44520-4 0  9996,2 54763  53.2165 148.8129 0001421  84.9625 275.1530 15.08859123 65280,6917.822,95.436,540.67,538.704,0.0
54763.0,STARLINK-5191,PAYLOAD,2024-02-24 11:03:54,15.08833473,0.0001486,53.2167,145.2457,94.0479,266.0683,6.9627e-06,-1.77e-06,0.0,0 STARLINK-5191,1 54763U 22175F   24055.46104469 -.00000177  00000-0  69627-5 0  9993,2 54763  53.2167 145.2457 0001486  94.0479 266.0683 15.08833473 65409,6917.9,95.438,540.793,538.737,0.0
54763.0,STARLINK-5191,PAYLOAD,2024-02-24 12:39:17,15.08834927,0.0001521,53.2169,144.9482,95.1799,264.9367,1.7988e-05,-2e-08,0.0,0 STARLINK-5191,1 54763U 22175F   24055.52728385 -.00000002  00000-0  17988-4 0  9998,2 54763  53.2169 144.9482 0001521  95.1799 264.9367 15.08834927 67573,6917.896,95.438,540.813,538.709,0.0
54763.0,STARLINK-5191,PAYLOAD,2024-02-24 15:50:03,15.08837572,0.0001362,53.2158,144.3529,82.1507,277.9639,3.3529e-05,2.46e-06,0.0,0 STARLINK-5191,1 54763U 22175F   24055.65976239  .00000246  00000-0  33529-4 0  9993,2 54763  53.2158 144.3529 0001362  82.1507 277.9639 15.08837572 67590,6917.888,95.438,540.695,538.811,0.0
54763.0,STARLINK-5191,PAYLOAD,2024-02-25 06:08:31,15.08843628,0.0001358,53.2166,141.675,95.8749,264.2398,-9.6902e-07,-3.03e-06,0.0,0 STARLINK-5191,1 54763U 22175F   24056.25591991 -.00000303  00000-0 -96902-6 0  9990,2 54763  53.2166 141.6750 0001358  95.8749 264.2398 15.08843628 65520,6917.869,95.437,540.674,538.795,0.0
54763.0,STARLINK-5191,PAYLOAD,2024-02-25 10:54:40,15.08849072,0.0001464,53.217,140.7829,93.6832,266.4327,4.3934e-05,4.11e-06,0.0,0 STARLINK-5191,1 54763U 22175F   24056.45463507  .00000411  00000-0  43934-4 0  9996,2 54763  53.2170 140.7829 0001464  93.6832 266.4327 15.08849072 67717,6917.853,95.437,540.73,538.705,0.0
54763.0,STARLINK-5191,PAYLOAD,2024-02-26 12:20:52,15.08817213,0.0001474,53.2176,136.0275,89.3265,270.7896,0.00013425,1.848e-05,0.0,0 STARLINK-5191,1 54763U 22175F   24057.51449576  .00001848  00000-0  13425-3 0  9990,2 54763  53.2176 136.0275 0001474  89.3265 270.7896 15.08817213 65718,6917.95,95.439,540.835,538.795,0.0
54763.0,STARLINK-5191,PAYLOAD,2024-02-27 12:11:38,15.08850168,0.0001471,53.2163,131.5676,93.7864,266.3296,8.0883e-05,1e-05,0.0,0 STARLINK-5191,1 54763U 22175F   24058.50807971  .00001000  00000-0  80883-4 0  9990,2 54763  53.2163 131.5676 0001471  93.7864 266.3296 15.08850168 65867,6917.849,95.437,540.732,538.697,0.0
54763.0,STARLINK-5191,PAYLOAD,2024-02-27 21:43:57,15.08839869,0.0001717,53.2176,129.7802,94.0609,266.058,0.00012025,1.626e-05,0.0,0 STARLINK-5191,1 54763U 22175F   24058.90552493  .00001626  00000-0  12025-3 0  9996,2 54763  53.2176 129.7802 0001717  94.0609 266.0580 15.08839869 68080,6917.881,95.438,540.934,538.558,0.0
54763.0,STARLINK-5191,PAYLOAD,2024-02-28 13:37:48,15.08838017,0.0001693,53.2176,126.8058,85.2592,274.8594,0.00015124,2.12e-05,0.0,0 STARLINK-5191,1 54763U 22175F   24059.56792669  .00002120  00000-0  15124-3 0  9993,2 54763  53.2176 126.8058 0001693  85.2592 274.8594 15.08838017 68184,6917.886,95.438,540.923,538.58,0.0
54763.0,STARLINK-5191,PAYLOAD,2024-02-29 03:56:17,15.08846514,0.0001585,53.2164,124.1335,74.3887,285.728,-2.7421e-05,-7.25e-06,0.0,0 STARLINK-5191,1 54763U 22175F   24060.16408787 -.00000725  00000-0 -27421-4 0  9991,2 54763  53.2164 124.1335 0001585  74.3887 285.7280 15.08846514 66111,6917.86,95.437,540.822,538.629,0.0
54763.0,STARLINK-5191,PAYLOAD,2024-02-29 11:53:12,15.08849496,0.0001452,53.2161,122.6451,85.5315,274.5843,-5.1774e-06,-3.7e-06,0.0,0 STARLINK-5191,1 54763U 22175F   24060.49528291 -.00000370  00000-0 -51774-5 0  9995,2 54763  53.2161 122.6451 0001452  85.5315 274.5843 15.08849496 68321,6917.851,95.437,540.721,538.712,0.0
54763.0,STARLINK-5191,PAYLOAD,2024-02-29 21:25:31,15.08842395,0.0001527,53.2164,120.8616,83.0404,277.0762,1.2833e-05,-8.4e-07,0.0,0 STARLINK-5191,1 54763U 22175F   24060.89272558 -.00000084  00000-0  12833-4 0  9994,2 54763  53.2164 120.8616 0001527  83.0404 277.0762 15.08842395 68387,6917.873,95.437,540.794,538.682,0.0
54763.0,STARLINK-5191,PAYLOAD,2024-03-01 11:43:59,15.08843966,0.0001542,53.2161,118.1857,85.7462,274.3706,2.0084e-05,3.2e-07,0.0,0 STARLINK-5191,1 54763U 22175F   24061.48888482  .00000032  00000-0  20084-4 0  9998,2 54763  53.2161 118.1857 0001542  85.7462 274.3706 15.08843966 68474,6917.868,95.437,540.8,538.667,0.0
54763.0,STARLINK-5191,PAYLOAD,2024-03-02 09:59:23,15.08849963,0.000179,53.2182,114.0209,97.7965,262.3231,5.3718e-05,5.67e-06,0.0,0 STARLINK-5191,1 54763U 22175F   24062.41623848  .00000567  00000-0  53718-4 0  9998,2 54763  53.2182 114.0209 0001790  97.7965 262.3231 15.08849963 68618,6917.85,95.437,540.953,538.477,0.0
54763.0,STARLINK-5191,PAYLOAD,2024-03-03 09:50:11,15.08832585,0.0001584,53.2166,109.5608,83.1475,276.9698,-1.9123e-05,-5.92e-06,0.0,0 STARLINK-5191,1 54763U 22175F   24063.40985107 -.00000592  00000-0 -19123-4 0  9999,2 54763  53.2166 109.5608 0001584  83.1475 276.9698 15.08832585 66605,6917.903,95.438,540.864,538.672,0.0
54763.0,STARLINK-5191,PAYLOAD,2024-03-04 03:19:25,15.08846284,0.0001508,53.2169,106.2884,108.7149,251.4007,-0.00012033,-2.203e-05,0.0,0 STARLINK-5191,1 54763U 22175F   24064.13848735 -.00002203  00000-0 -12033-3 0  9998,2 54763  53.2169 106.2884 0001508 108.7149 251.4007 15.08846284 66711,6917.861,95.437,540.769,538.683,0.0
54763.0,STARLINK-5191,PAYLOAD,2024-03-04 09:40:57,15.08852097,0.0001497,53.2171,105.1025,89.8293,270.287,-1.308e-05,-4.96e-06,0.0,0 STARLINK-5191,1 54763U 22175F   24064.40344031 -.00000496  00000-0 -13080-4 0  9994,2 54763  53.2171 105.1025 0001497  89.8293 270.2870 15.08852097 66755,6917.843,95.437,540.744,538.673,0.0
54763.0,STARLINK-5191,PAYLOAD,2024-03-04 19:13:14,15.08862666,0.0001617,53.2172,103.3177,114.4352,245.6809,2.9854e-05,1.87e-06,0.0,0 STARLINK-5191,1 54763U 22175F   24064.80086769  .00000187  00000-0  29854-4 0  9990,2 54763  53.2172 103.3177 0001617 114.4352 245.6809 15.08862666 66817,6917.811,95.436,540.795,538.557,0.0
54763.0,STARLINK-5191,PAYLOAD,2024-03-05 07:56:22,15.08813716,0.0001598,53.2161,100.9378,87.0939,273.0236,-0.00015522,-2.756e-05,0.0,0 STARLINK-5191,1 54763U 22175F   24065.33082112 -.00002756  00000-0 -15522-3 0  9999,2 54763  53.2161 100.9378 0001598  87.0939 273.0236 15.08813716 69055,6917.961,95.439,540.931,538.72,0.0
54763.0,STARLINK-5191,PAYLOAD,2024-03-05 09:31:46,15.08815873,0.0001555,53.216,100.6415,91.5252,268.5919,-0.00011762,-2.158e-05,0.0,0 STARLINK-5191,1 54763U 22175F   24065.39706118 -.00002158  00000-0 -11762-3 0  9992,2 54763  53.2160 100.6415 0001555  91.5252 268.5919 15.08815873 66908,6917.954,95.439,540.895,538.743,0.0
54763.0,STARLINK-5191,PAYLOAD,2024-03-05 19:04:04,15.08824945,0.0001708,53.2171,98.8569,95.0352,265.0835,-7.7543e-05,-1.521e-05,0.0,0 STARLINK-5191,1 54763U 22175F   24065.79449907 -.00001521  00000-0 -77543-4 0  9999,2 54763  53.2171  98.8569 0001708  95.0352 265.0835 15.08824945 66963,6917.926,95.439,540.973,538.61,0.0
54763.0,STARLINK-5191,PAYLOAD,2024-03-06 10:57:56,15.08846748,0.0001538,53.2154,95.8819,95.4343,264.6824,0.0010272,0.00016101,0.0,0 STARLINK-5191,1 54763U 22175F   24066.45690066  .00016101  00000-0  10272-2 0  9999,2 54763  53.2154  95.8819 0001538  95.4343 264.6824 15.08846748 67064,6917.86,95.437,540.789,538.661,0.0
54763.0,STARLINK-5191,PAYLOAD,2024-03-07 10:48:42,15.08851832,0.0001449,53.2148,91.4211,91.6694,268.4464,0.0006133,9.489e-05,0.0,0 STARLINK-5191,1 54763U 22175F   24067.45049754  .00009489  00000-0  61330-3 0  9995,2 54763  53.2148  91.4211 0001449  91.6694 268.4464 15.08851832 69371,6917.844,95.437,540.712,538.707,0.0
54763.0,STARLINK-5191,PAYLOAD,2024-03-08 01:07:11,15.08852246,0.0001589,53.2149,88.7446,89.2213,270.8961,0.00074667,0.00011619,0.0,0 STARLINK-5191,1 54763U 22175F   24068.04665750  .00011619  00000-0  74667-3 0  9996,2 54763  53.2149  88.7446 0001589  89.2213 270.8961 15.08852246 67306,6917.843,95.437,540.807,538.609,0.0
